ERS-1                   
1 21574U 91050A   26090.03710303  .00000406  00000+0  14419-3 0  9999
2 21574  98.7863 108.8071 0032774 137.5738 222.7992 14.39465735818809
ARIANE 40 R/B           
1 21610U 91050F   26090.10661532  .00000378  00000+0  12548-3 0  9996
2 21610  98.1967 141.5348 0003418  32.2025 327.9374 14.42909252822081
INTERCOSMOS 25          
1 21819U 91086A   26090.03719947  .00002286  00000+0  44197-3 0  9997
2 21819  82.6005 297.1021 1486451  70.9381 304.6424 12.12073011499275
SL-8 R/B                
1 21876U 92008B   26090.19581732  .00000011  00000+0 -45751-5 0  9995
2 21876  82.9235 251.7760 0035855  75.3183  97.1365 13.75969543712379
SL-8 R/B                
1 21938U 92020B   26090.14062106  .00000044  00000+0  30534-4 0  9999
2 21938  82.9299 137.8343 0027850 236.1189 137.1755 13.75550590704083
USA 81                  
1 21949U 92023A   26090.17493161  .00000225  00000+0  76102-4 0  9998
2 21949  85.0044 119.0416 0001680  68.3738 291.7634 14.32374998 97862
COSMOS 2219             
1 22219U 92076A   26090.09610078 -.00000216  00000+0 -88428-4 0  9992
2 22219  71.0618 333.3234 0017804 175.2650 184.8645 14.14090051721403
SL-16 R/B               
1 22220U 92076B   26090.15088840 -.00000187  00000+0 -69475-4 0  9995
2 22220  70.9993 143.1695 0010764  56.3957 324.0842 14.16863464724873
COSMOS 2221             
1 22236U 92080A   26089.97077771  .00002855  00000+0  24987-3 0  9996
2 22236  82.5005 258.6893 0015543 118.7380 241.5406 14.96292393783978
SL-16 R/B               
1 22285U 92093B   26090.08185674  .00000115  00000+0  83002-4 0  9991
2 22285  71.0228 319.3606 0006556 273.0739  86.9633 14.15455616716188
COSMOS 2228             
1 22286U 92094A   26090.17339084  .00003582  00000+0  30593-3 0  9996
2 22286  82.5191 216.7404 0017000 226.4643 133.5168 14.97304857779274
SL-16 R/B               
1 22566U 93016B   26090.19509764  .00000142  00000+0  97475-4 0  9990
2 22566  71.0075 170.0169 0012346 286.4108  73.5657 14.15306052705217
