CCSDS_OMM_VERS = 2.0
CREATION_DATE  = 
ORIGINATOR     = 

OBJECT_NAME    = ERS-1
OBJECT_ID      = 1991-050A
CENTER_NAME    = EARTH
REF_FRAME      = TEME
TIME_SYSTEM    = UTC
MEAN_ELEMENT_THEORY = SGP/SGP4

EPOCH          = 2026-03-31T00:53:25.701792
MEAN_MOTION    = 14.39465735
ECCENTRICITY   = .0032774
INCLINATION    = 98.7863
RA_OF_ASC_NODE = 108.8071
ARG_OF_PERICENTER = 137.5738
MEAN_ANOMALY   = 222.7992

EPHEMERIS_TYPE = 0
CLASSIFICATION_TYPE = U
NORAD_CAT_ID   = 21574
ELEMENT_SET_NO = 999
REV_AT_EPOCH   = 81880
BSTAR          = .14419E-3
MEAN_MOTION_DOT = .406E-5
MEAN_MOTION_DDOT = 0

CCSDS_OMM_VERS = 2.0
CREATION_DATE  = 
ORIGINATOR     = 

OBJECT_NAME    = ARIANE 40 R/B
OBJECT_ID      = 1991-050F
CENTER_NAME    = EARTH
REF_FRAME      = TEME
TIME_SYSTEM    = UTC
MEAN_ELEMENT_THEORY = SGP/SGP4

EPOCH          = 2026-03-31T02:33:31.563648
MEAN_MOTION    = 14.42909252
ECCENTRICITY   = .0003418
INCLINATION    = 98.1967
RA_OF_ASC_NODE = 141.5348
ARG_OF_PERICENTER = 32.2025
MEAN_ANOMALY   = 327.9374

EPHEMERIS_TYPE = 0
CLASSIFICATION_TYPE = U
NORAD_CAT_ID   = 21610
ELEMENT_SET_NO = 999
REV_AT_EPOCH   = 82208
BSTAR          = .12548E-3
MEAN_MOTION_DOT = .378E-5
MEAN_MOTION_DDOT = 0

CCSDS_OMM_VERS = 2.0
CREATION_DATE  = 
ORIGINATOR     = 

OBJECT_NAME    = INTERCOSMOS 25
OBJECT_ID      = 1991-086A
CENTER_NAME    = EARTH
REF_FRAME      = TEME
TIME_SYSTEM    = UTC
MEAN_ELEMENT_THEORY = SGP/SGP4

EPOCH          = 2026-03-31T00:53:34.034208
MEAN_MOTION    = 12.12073011
ECCENTRICITY   = .1486451
INCLINATION    = 82.6005
RA_OF_ASC_NODE = 297.1021
ARG_OF_PERICENTER = 70.9381
MEAN_ANOMALY   = 304.6424

EPHEMERIS_TYPE = 0
CLASSIFICATION_TYPE = U
NORAD_CAT_ID   = 21819
ELEMENT_SET_NO = 999
REV_AT_EPOCH   = 49927
BSTAR          = .44197E-3
MEAN_MOTION_DOT = .2286E-4
MEAN_MOTION_DDOT = 0

CCSDS_OMM_VERS = 2.0
CREATION_DATE  = 
ORIGINATOR     = 

OBJECT_NAME    = SL-8 R/B
OBJECT_ID      = 1992-008B
CENTER_NAME    = EARTH
REF_FRAME      = TEME
TIME_SYSTEM    = UTC
MEAN_ELEMENT_THEORY = SGP/SGP4

EPOCH          = 2026-03-31T04:41:58.616448
MEAN_MOTION    = 13.75969543
ECCENTRICITY   = .0035855
INCLINATION    = 82.9235
RA_OF_ASC_NODE = 251.7760
ARG_OF_PERICENTER = 75.3183
MEAN_ANOMALY   = 97.1365

EPHEMERIS_TYPE = 0
CLASSIFICATION_TYPE = U
NORAD_CAT_ID   = 21876
ELEMENT_SET_NO = 999
REV_AT_EPOCH   = 71237
BSTAR          = -.45751E-5
MEAN_MOTION_DOT = .11E-6
MEAN_MOTION_DDOT = 0

CCSDS_OMM_VERS = 2.0
CREATION_DATE  = 
ORIGINATOR     = 

OBJECT_NAME    = SL-8 R/B
OBJECT_ID      = 1992-020B
CENTER_NAME    = EARTH
REF_FRAME      = TEME
TIME_SYSTEM    = UTC
MEAN_ELEMENT_THEORY = SGP/SGP4

EPOCH          = 2026-03-31T03:22:29.659584
MEAN_MOTION    = 13.75550590
ECCENTRICITY   = .002785
INCLINATION    = 82.9299
RA_OF_ASC_NODE = 137.8343
ARG_OF_PERICENTER = 236.1189
MEAN_ANOMALY   = 137.1755

EPHEMERIS_TYPE = 0
CLASSIFICATION_TYPE = U
NORAD_CAT_ID   = 21938
ELEMENT_SET_NO = 999
REV_AT_EPOCH   = 70408
BSTAR          = .30534E-4
MEAN_MOTION_DOT = .44E-6
MEAN_MOTION_DDOT = 0

CCSDS_OMM_VERS = 2.0
CREATION_DATE  = 
ORIGINATOR     = 

OBJECT_NAME    = USA 81
OBJECT_ID      = 1992-023A
CENTER_NAME    = EARTH
REF_FRAME      = TEME
TIME_SYSTEM    = UTC
MEAN_ELEMENT_THEORY = SGP/SGP4

EPOCH          = 2026-03-31T04:11:54.091104
MEAN_MOTION    = 14.32374998
ECCENTRICITY   = .000168
INCLINATION    = 85.0044
RA_OF_ASC_NODE = 119.0416
ARG_OF_PERICENTER = 68.3738
MEAN_ANOMALY   = 291.7634

EPHEMERIS_TYPE = 0
CLASSIFICATION_TYPE = U
NORAD_CAT_ID   = 21949
ELEMENT_SET_NO = 999
REV_AT_EPOCH   = 9786
BSTAR          = .76102E-4
MEAN_MOTION_DOT = .225E-5
MEAN_MOTION_DDOT = 0

CCSDS_OMM_VERS = 2.0
CREATION_DATE  = 
ORIGINATOR     = 

OBJECT_NAME    = COSMOS 2219
OBJECT_ID      = 1992-076A
CENTER_NAME    = EARTH
REF_FRAME      = TEME
TIME_SYSTEM    = UTC
MEAN_ELEMENT_THEORY = SGP/SGP4

EPOCH          = 2026-03-31T02:18:23.107392
MEAN_MOTION    = 14.14090051
ECCENTRICITY   = .0017804
INCLINATION    = 71.0618
RA_OF_ASC_NODE = 333.3234
ARG_OF_PERICENTER = 175.2650
MEAN_ANOMALY   = 184.8645

EPHEMERIS_TYPE = 0
CLASSIFICATION_TYPE = U
NORAD_CAT_ID   = 22219
ELEMENT_SET_NO = 999
REV_AT_EPOCH   = 72140
BSTAR          = -.88428E-4
MEAN_MOTION_DOT = -.216E-5
MEAN_MOTION_DDOT = 0

CCSDS_OMM_VERS = 2.0
CREATION_DATE  = 
ORIGINATOR     = 

OBJECT_NAME    = SL-16 R/B
OBJECT_ID      = 1992-076B
CENTER_NAME    = EARTH
REF_FRAME      = TEME
TIME_SYSTEM    = UTC
MEAN_ELEMENT_THEORY = SGP/SGP4

EPOCH          = 2026-03-31T03:37:16.757760
MEAN_MOTION    = 14.16863464
ECCENTRICITY   = .0010764
INCLINATION    = 70.9993
RA_OF_ASC_NODE = 143.1695
ARG_OF_PERICENTER = 56.3957
MEAN_ANOMALY   = 324.0842

EPHEMERIS_TYPE = 0
CLASSIFICATION_TYPE = U
NORAD_CAT_ID   = 22220
ELEMENT_SET_NO = 999
REV_AT_EPOCH   = 72487
BSTAR          = -.69475E-4
MEAN_MOTION_DOT = -.187E-5
MEAN_MOTION_DDOT = 0

CCSDS_OMM_VERS = 2.0
CREATION_DATE  = 
ORIGINATOR     = 

OBJECT_NAME    = COSMOS 2221
OBJECT_ID      = 1992-080A
CENTER_NAME    = EARTH
REF_FRAME      = TEME
TIME_SYSTEM    = UTC
MEAN_ELEMENT_THEORY = SGP/SGP4

EPOCH          = 2026-03-30T23:17:55.194144
MEAN_MOTION    = 14.96292393
ECCENTRICITY   = .0015543
INCLINATION    = 82.5005
RA_OF_ASC_NODE = 258.6893
ARG_OF_PERICENTER = 118.7380
MEAN_ANOMALY   = 241.5406

EPHEMERIS_TYPE = 0
CLASSIFICATION_TYPE = U
NORAD_CAT_ID   = 22236
ELEMENT_SET_NO = 999
REV_AT_EPOCH   = 78397
BSTAR          = .24987E-3
MEAN_MOTION_DOT = .2855E-4
MEAN_MOTION_DDOT = 0

CCSDS_OMM_VERS = 2.0
CREATION_DATE  = 
ORIGINATOR     = 

OBJECT_NAME    = SL-16 R/B
OBJECT_ID      = 1992-093B
CENTER_NAME    = EARTH
REF_FRAME      = TEME
TIME_SYSTEM    = UTC
MEAN_ELEMENT_THEORY = SGP/SGP4

EPOCH          = 2026-03-31T01:57:52.422336
MEAN_MOTION    = 14.15455616
ECCENTRICITY   = .0006556
INCLINATION    = 71.0228
RA_OF_ASC_NODE = 319.3606
ARG_OF_PERICENTER = 273.0739
MEAN_ANOMALY   = 86.9633

EPHEMERIS_TYPE = 0
CLASSIFICATION_TYPE = U
NORAD_CAT_ID   = 22285
ELEMENT_SET_NO = 999
REV_AT_EPOCH   = 71618
BSTAR          = .83002E-4
MEAN_MOTION_DOT = .115E-5
MEAN_MOTION_DDOT = 0

CCSDS_OMM_VERS = 2.0
CREATION_DATE  = 
ORIGINATOR     = 

OBJECT_NAME    = COSMOS 2228
OBJECT_ID      = 1992-094A
CENTER_NAME    = EARTH
REF_FRAME      = TEME
TIME_SYSTEM    = UTC
MEAN_ELEMENT_THEORY = SGP/SGP4

EPOCH          = 2026-03-31T04:09:40.968576
MEAN_MOTION    = 14.97304857
ECCENTRICITY   = .0017
INCLINATION    = 82.5191
RA_OF_ASC_NODE = 216.7404
ARG_OF_PERICENTER = 226.4643
MEAN_ANOMALY   = 133.5168

EPHEMERIS_TYPE = 0
CLASSIFICATION_TYPE = U
NORAD_CAT_ID   = 22286
ELEMENT_SET_NO = 999
REV_AT_EPOCH   = 77927
BSTAR          = .30593E-3
MEAN_MOTION_DOT = .3582E-4
MEAN_MOTION_DDOT = 0

CCSDS_OMM_VERS = 2.0
CREATION_DATE  = 
ORIGINATOR     = 

OBJECT_NAME    = SL-16 R/B
OBJECT_ID      = 1993-016B
CENTER_NAME    = EARTH
REF_FRAME      = TEME
TIME_SYSTEM    = UTC
MEAN_ELEMENT_THEORY = SGP/SGP4

EPOCH          = 2026-03-31T04:40:56.436096
MEAN_MOTION    = 14.15306052
ECCENTRICITY   = .0012346
INCLINATION    = 71.0075
RA_OF_ASC_NODE = 170.0169
ARG_OF_PERICENTER = 286.4108
MEAN_ANOMALY   = 73.5657

EPHEMERIS_TYPE = 0
CLASSIFICATION_TYPE = U
NORAD_CAT_ID   = 22566
ELEMENT_SET_NO = 999
REV_AT_EPOCH   = 70521
BSTAR          = .97475E-4
MEAN_MOTION_DOT = .142E-5
MEAN_MOTION_DDOT = 0

